ORBCOMM FM115 [+]       
1 41186U 15081H   24025.59888517  .00001513  00000+0  34543-3 0  9990
2 41186  46.9995 294.1418 0001109 265.7519  94.3241 14.60305153433381
ORBCOMM FM108 [+]       
1 41187U 15081J   24024.93620470  .00002068  00000+0  50068-3 0  9996
2 41187  47.0061 348.2344 0001605 141.4776 218.6223 14.56217978432521
ORBCOMM FM117 [+]       
1 41188U 15081K   24024.97077802  .00002067  00000+0  50047-3 0  9992
2 41188  47.0021 347.0024 0002235 157.3414 202.7570 14.56222310432575
ORBCOMM FM116 [+]       
1 41189U 15081L   24024.96025308  .00002341  00000+0  56177-3 0  9991
2 41189  47.0017  76.8648 0003216 249.2098 110.8443 14.56225018431383
